IRIDIUM 173             
1 43925U 19002D   26064.92929077  .00000188  00000+0  59895-4 0  9994
2 43925  86.3965  36.7042 0002126  83.0697 277.0740 14.34217162374156
IRIDIUM 169             
1 43926U 19002E   26064.61414631  .00000207  00000+0  61114-4 0  9995
2 43926  86.4168  68.4928 0001521  77.3548 282.7820 14.38610857375332
IRIDIUM 172             
1 43927U 19002F   26064.92294982  .00000086  00000+0  23566-4 0  9999
2 43927  86.3966  36.7144 0002357  86.0015 274.1450 14.34218247374167
IRIDIUM 175             
1 43928U 19002G   26064.70754255  .00000741  00000+0  11359-3 0  9994
2 43928  86.1536 334.5482 0002356 110.3861 249.7609 14.72249685384013
IRIDIUM 171             
1 43929U 19002H   26064.90392253  .00000000  00000+0 -70546-5 0  9997
2 43929  86.3971  37.0180 0001945  91.6046 268.5373 14.34217447374158
IRIDIUM 170             
1 43930U 19002J   26064.99019021  .00001378  00000+0  21469-3 0  9993
2 43930  86.6089  36.6721 0002717  90.2420 269.9109 14.72251121384071
IRIDIUM 167             
1 43931U 19002K   26064.89757939 -.00000022  00000+0 -14842-4 0  9995
2 43931  86.3962  36.7470 0001766  91.3517 268.7881 14.34217437374155
IRIDIUM 181             
1 56726U 23068S   26064.59766739  .00000445  00000+0  12630-3 0  9992
2 56726  86.4458 100.1117 0002618  97.3562 262.7937 14.43315916147491
IRIDIUM 177             
1 56727U 23068T   26064.89209386  .00001822  00000+0  23618-3 0  9994
2 56727  86.1999  17.8245 0002345  81.0657 279.0829 14.80247021151080
IRIDIUM 174             
1 56728U 23068U   26064.97782878  .00001298  00000+0  20186-3 0  9990
2 56728  86.6093  36.8139 0002560  82.6837 277.4671 14.72255200150838
IRIDIUM 178             
1 56729U 23068V   26064.94882120  .00000699  00000+0  88588-4 0  9994
2 56729  86.6482  68.5034 0002372 100.6953 259.4536 14.80232195151094
IRIDIUM 179             
1 56730U 23068W   26064.53784167  .00000960  00000+0  12296-3 0  9996
2 56730  86.6714  77.3547 0002193  94.2333 265.9140 14.80233775151034
