[{"OBJECT_NAME":"IRIDIUM 173","OBJECT_ID":"2019-002D","EPOCH":"2026-03-05T22:18:10.722528","MEAN_MOTION":14.34217162,"ECCENTRICITY":0.0002126,"INCLINATION":86.3965,"RA_OF_ASC_NODE":36.7042,"ARG_OF_PERICENTER":83.0697,"MEAN_ANOMALY":277.074,"EPHEMERIS_TYPE":0,"CLASSIFICATION_TYPE":"U","NORAD_CAT_ID":43925,"ELEMENT_SET_NO":999,"REV_AT_EPOCH":37415,"BSTAR":5.989516e-5,"MEAN_MOTION_DOT":1.88e-6,"MEAN_MOTION_DDOT":0},{"OBJECT_NAME":"IRIDIUM 169","OBJECT_ID":"2019-002E","EPOCH":"2026-03-05T14:44:22.241184","MEAN_MOTION":14.38610857,"ECCENTRICITY":0.00015215,"INCLINATION":86.4168,"RA_OF_ASC_NODE":68.4928,"ARG_OF_PERICENTER":77.3548,"MEAN_ANOMALY":282.782,"EPHEMERIS_TYPE":0,"CLASSIFICATION_TYPE":"U","NORAD_CAT_ID":43926,"ELEMENT_SET_NO":999,"REV_AT_EPOCH":37533,"BSTAR":6.1113663e-5,"MEAN_MOTION_DOT":2.07e-6,"MEAN_MOTION_DDOT":0},{"OBJECT_NAME":"IRIDIUM 172","OBJECT_ID":"2019-002F","EPOCH":"2026-03-05T22:09:02.864448","MEAN_MOTION":14.34218247,"ECCENTRICITY":0.00023577,"INCLINATION":86.3966,"RA_OF_ASC_NODE":36.7144,"ARG_OF_PERICENTER":86.0015,"MEAN_ANOMALY":274.145,"EPHEMERIS_TYPE":0,"CLASSIFICATION_TYPE":"U","NORAD_CAT_ID":43927,"ELEMENT_SET_NO":999,"REV_AT_EPOCH":37416,"BSTAR":2.3566047e-5,"MEAN_MOTION_DOT":8.6e-7,"MEAN_MOTION_DDOT":0},{"OBJECT_NAME":"IRIDIUM 175","OBJECT_ID":"2019-002G","EPOCH":"2026-03-05T16:58:51.676320","MEAN_MOTION":14.72249685,"ECCENTRICITY":0.0002356,"INCLINATION":86.1536,"RA_OF_ASC_NODE":334.5482,"ARG_OF_PERICENTER":110.3861,"MEAN_ANOMALY":249.7609,"EPHEMERIS_TYPE":0,"CLASSIFICATION_TYPE":"U","NORAD_CAT_ID":43928,"ELEMENT_SET_NO":999,"REV_AT_EPOCH":38401,"BSTAR":0.00011359284,"MEAN_MOTION_DOT":7.41e-6,"MEAN_MOTION_DDOT":0},{"OBJECT_NAME":"IRIDIUM 171","OBJECT_ID":"2019-002H","EPOCH":"2026-03-05T21:41:38.906592","MEAN_MOTION":14.34217447,"ECCENTRICITY":0.00019452,"INCLINATION":86.3971,"RA_OF_ASC_NODE":37.018,"ARG_OF_PERICENTER":91.6046,"MEAN_ANOMALY":268.5373,"EPHEMERIS_TYPE":0,"CLASSIFICATION_TYPE":"U","NORAD_CAT_ID":43929,"ELEMENT_SET_NO":999,"REV_AT_EPOCH":37415,"BSTAR":-7.054633e-6,"MEAN_MOTION_DOT":0,"MEAN_MOTION_DDOT":0},{"OBJECT_NAME":"IRIDIUM 170","OBJECT_ID":"2019-002J","EPOCH":"2026-03-05T23:45:52.434144","MEAN_MOTION":14.72251121,"ECCENTRICITY":0.00027173,"INCLINATION":86.6089,"RA_OF_ASC_NODE":36.6721,"ARG_OF_PERICENTER":90.242,"MEAN_ANOMALY":269.9109,"EPHEMERIS_TYPE":0,"CLASSIFICATION_TYPE":"U","NORAD_CAT_ID":43930,"ELEMENT_SET_NO":999,"REV_AT_EPOCH":38407,"BSTAR":0.00021469035,"MEAN_MOTION_DOT":1.378e-5,"MEAN_MOTION_DDOT":0},{"OBJECT_NAME":"IRIDIUM 167","OBJECT_ID":"2019-002K","EPOCH":"2026-03-05T21:32:30.859296","MEAN_MOTION":14.34217437,"ECCENTRICITY":0.00017662,"INCLINATION":86.3962,"RA_OF_ASC_NODE":36.747,"ARG_OF_PERICENTER":91.3517,"MEAN_ANOMALY":268.7881,"EPHEMERIS_TYPE":0,"CLASSIFICATION_TYPE":"U","NORAD_CAT_ID":43931,"ELEMENT_SET_NO":999,"REV_AT_EPOCH":37415,"BSTAR":-1.4841844e-5,"MEAN_MOTION_DOT":-2.2e-7,"MEAN_MOTION_DDOT":0},{"OBJECT_NAME":"IRIDIUM 181","OBJECT_ID":"2023-068S","EPOCH":"2026-03-05T14:20:38.462496","MEAN_MOTION":14.43315916,"ECCENTRICITY":0.0002618,"INCLINATION":86.4458,"RA_OF_ASC_NODE":100.1117,"ARG_OF_PERICENTER":97.3562,"MEAN_ANOMALY":262.7937,"EPHEMERIS_TYPE":0,"CLASSIFICATION_TYPE":"U","NORAD_CAT_ID":56726,"ELEMENT_SET_NO":999,"REV_AT_EPOCH":14749,"BSTAR":0.0001263,"MEAN_MOTION_DOT":4.45e-6,"MEAN_MOTION_DDOT":0},{"OBJECT_NAME":"IRIDIUM 177","OBJECT_ID":"2023-068T","EPOCH":"2026-03-05T21:24:36.909504","MEAN_MOTION":14.80247021,"ECCENTRICITY":0.00023458,"INCLINATION":86.1999,"RA_OF_ASC_NODE":17.8245,"ARG_OF_PERICENTER":81.0657,"MEAN_ANOMALY":279.0829,"EPHEMERIS_TYPE":0,"CLASSIFICATION_TYPE":"U","NORAD_CAT_ID":56727,"ELEMENT_SET_NO":999,"REV_AT_EPOCH":15108,"BSTAR":0.0002361826,"MEAN_MOTION_DOT":1.822e-5,"MEAN_MOTION_DDOT":0},{"OBJECT_NAME":"IRIDIUM 174","OBJECT_ID":"2023-068U","EPOCH":"2026-03-05T23:28:04.406592","MEAN_MOTION":14.722552,"ECCENTRICITY":0.00025606,"INCLINATION":86.6093,"RA_OF_ASC_NODE":36.8139,"ARG_OF_PERICENTER":82.6837,"MEAN_ANOMALY":277.4671,"EPHEMERIS_TYPE":0,"CLASSIFICATION_TYPE":"U","NORAD_CAT_ID":56728,"ELEMENT_SET_NO":999,"REV_AT_EPOCH":15083,"BSTAR":0.00020186365,"MEAN_MOTION_DOT":1.298e-5,"MEAN_MOTION_DDOT":0},{"OBJECT_NAME":"IRIDIUM 178","OBJECT_ID":"2023-068V","EPOCH":"2026-03-05T22:46:18.151680","MEAN_MOTION":14.80232195,"ECCENTRICITY":0.00023723,"INCLINATION":86.6482,"RA_OF_ASC_NODE":68.5034,"ARG_OF_PERICENTER":100.6953,"MEAN_ANOMALY":259.4536,"EPHEMERIS_TYPE":0,"CLASSIFICATION_TYPE":"U","NORAD_CAT_ID":56729,"ELEMENT_SET_NO":999,"REV_AT_EPOCH":15109,"BSTAR":8.8588493e-5,"MEAN_MOTION_DOT":6.99e-6,"MEAN_MOTION_DDOT":0},{"OBJECT_NAME":"IRIDIUM 179","OBJECT_ID":"2023-068W","EPOCH":"2026-03-05T12:54:29.520288","MEAN_MOTION":14.80233775,"ECCENTRICITY":0.0002193,"INCLINATION":86.6714,"RA_OF_ASC_NODE":77.3547,"ARG_OF_PERICENTER":94.2333,"MEAN_ANOMALY":265.914,"EPHEMERIS_TYPE":0,"CLASSIFICATION_TYPE":"U","NORAD_CAT_ID":56730,"ELEMENT_SET_NO":999,"REV_AT_EPOCH":15103,"BSTAR":0.00012296,"MEAN_MOTION_DOT":9.6e-6,"MEAN_MOTION_DDOT":0}]
